ORBCOMM FM05            
1 25117U 97084F   24124.40559313  .00001640  00000+0  53158-3 0  9992
2 25117  45.0144 170.6008 0004148 301.3682  58.6762 14.42641226381365
ORBCOMM FM06            
1 25118U 97084G   24124.43664672  .00001933  00000+0  61833-3 0  9995
2 25118  45.0130 170.6220 0003292 301.3932  72.9629 14.42678647382284
ORBCOMM FM07            
1 25119U 97084H   24124.49402136  .00001655  00000+0  53630-3 0  9994
2 25119  45.0125 170.8808 0005018 297.0514  62.9823 14.42601199382281
ORBCOMM FM03            
1 25158U 98007B   24124.60438258  .00001078  00000+0  44320-3 0  9995
2 25158 107.9737  15.6010 0048347 245.1551 114.4555 14.32128351365356
ORBCOMM FM04            
1 25159U 98007C   24124.59427393  .00001159  00000+0  47161-3 0  9998
2 25159 107.9717  18.5120 0043839 243.1361 116.5292 14.32388754365522
ORBCOMM FM17            
1 25413U 98046A   24124.45126530  .00001240  00000+0  49873-3 0  9991
2 25413  44.9960  28.4106 0002979 328.9087  31.1583 14.33108345344356
ORBCOMM FM18            
1 25414U 98046B   24124.66795365  .00001567  00000+0  58411-3 0  9993
2 25414  44.9935 314.6316 0003508  24.5263 335.5750 14.35858302345508
ORBCOMM FM19            
1 25415U 98046C   24124.49763321  .00001870  00000+0  69011-3 0  9997
2 25415  44.9941 316.8390 0002346  14.6493   3.4962 14.35693100345279
